{
    "links": {
        "self": "http://www.neowsapp.com/rest/v1/neo/3698537?api_key=iIulBulltgU6a56xZRHN4H3l9WmuAYTsLGpBGhQ2"
    },
    "id": "3698537",
    "neo_reference_id": "3698537",
    "name": "(2014 HO198)",
    "designation": "2014 HO198",
    "nasa_jpl_url": "http://ssd.jpl.nasa.gov/sbdb.cgi?sstr=3698537",
    "absolute_magnitude_h": 26.5,
    "estimated_diameter": {
        "kilometers": {
            "estimated_diameter_min": 0.0133215567,
            "estimated_diameter_max": 0.0297879063
        },
        "meters": {
            "estimated_diameter_min": 13.3215566698,
            "estimated_diameter_max": 29.7879062798
        },
        "miles": {
            "estimated_diameter_min": 0.008277629,
            "estimated_diameter_max": 0.0185093411
        },
        "feet": {
            "estimated_diameter_min": 43.7058959846,
            "estimated_diameter_max": 97.7293544391
        }
    },
    "is_potentially_hazardous_asteroid": false,
    "close_approach_data": [
        {
            "close_approach_date": "2014-05-08",
            "close_approach_date_full": "2014-May-08 18:03",
            "epoch_date_close_approach": 1399572180000,
            "relative_velocity": {
                "kilometers_per_second": "6.3264064691",
                "kilometers_per_hour": "22775.0632888273",
                "miles_per_hour": "14151.5386307716"
            },
            "miss_distance": {
                "astronomical": "0.0464607475",
                "lunar": "18.0732307775",
                "kilometers": "6950428.864607825",
                "miles": "4318796.231224985"
            },
            "orbiting_body": "Earth"
        }
    ],
    "orbital_data": {
        "orbit_id": "3",
        "orbit_determination_date": "2017-04-06 08:40:50",
        "first_observation_date": "2014-04-28",
        "last_observation_date": "2014-04-29",
        "data_arc_in_days": 1,
        "observations_used": 20,
        "orbit_uncertainty": "9",
        "minimum_orbit_intersection": ".042845",
        "jupiter_tisserand_invariant": "4.317",
        "epoch_osculation": "2456776.5",
        "eccentricity": ".3556669746615339",
        "semi_major_axis": "1.582114221384585",
        "inclination": "4.218021317419922",
        "ascending_node_longitude": "23.75822781045203",
        "orbital_period": "726.8673786174256",
        "perihelion_distance": "1.019408442695741",
        "perihelion_argument": "227.254375128586",
        "aphelion_distance": "2.144820000073428",
        "perihelion_time": "2456806.475833298287",
        "mean_anomaly": "345.1536878599375",
        "mean_motion": ".4952760442830108",
        "equinox": "J2000",
        "orbit_class": {
            "orbit_class_type": "AMO",
            "orbit_class_description": "Near-Earth asteroid orbits similar to that of 1221 Amor",
            "orbit_class_range": "1.017 AU < q (perihelion) < 1.3 AU"
        }
    },
    "is_sentry_object": false
}